[
    {
        "Altitude(m)": 607886.6702192313,
        "Argument of Periapsis(deg)": 0.0,
        "Eccentricity": 0.0,
        "Inclination(deg)": 60.0,
        "Latitude(deg)": 40.99838615161497,
        "Longitude(deg)": -115.027006093164,
        "Mean Anomaly(deg)": -310.9091,
        "RAAN(deg)": 315.0,
        "Satellite Name": "Test1 1389",
        "Satellite Number": 1389,
        "Semi-Major Axis(m)": 6980739.136638005,
        "Time(s)": 0
    },
    {
        "Altitude(m)": 607987.5841614015,
        "Argument of Periapsis(deg)": 0.00010418945913296404,
        "Eccentricity": 0.0,
        "Inclination(deg)": 60.0,
        "Latitude(deg)": 41.4634760892927,
        "Longitude(deg)": -114.52277842896831,
        "Mean Anomaly(deg)": -310.28899385453815,
        "RAAN(deg)": 314.99957995086027,
        "Satellite Name": "Test1 1389",
        "Satellite Number": 1389,
        "Semi-Major Axis(m)": 6980739.136638005,
        "Time(s)": 10
    },
    {
        "Altitude(m)": 608088.5477287378,
        "Argument of Periapsis(deg)": 0.0002083789182659281,
        "Eccentricity": 0.0,
        "Inclination(deg)": 60.0,
        "Latitude(deg)": 41.92590185569994,
        "Longitude(deg)": -114.01072777664365,
        "Mean Anomaly(deg)": -309.6688877090764,
        "RAAN(deg)": 314.9991599017205,
        "Satellite Name": "Test1 1389",
        "Satellite Number": 1389,
        "Semi-Major Axis(m)": 6980739.136638005,
        "Time(s)": 20
    },
    {
        "Altitude(m)": 608189.4976999876,
        "Argument of Periapsis(deg)": 0.00031256837739889213,
        "Eccentricity": 0.0,
        "Inclination(deg)": 60.0,
        "Latitude(deg)": 42.385582701427396,
        "Longitude(deg)": -113.49065809600103,
        "Mean Anomaly(deg)": -309.0487815636145,
        "RAAN(deg)": 314.9987398525808,
        "Satellite Name": "Test1 1389",
        "Satellite Number": 1389,
        "Semi-Major Axis(m)": 6980739.136638005,
        "Time(s)": 30
    },
    {
        "Altitude(m)": 608290.3710806296,
        "Argument of Periapsis(deg)": 0.0004167578365318562,
        "Eccentricity": 0.0,
        "Inclination(deg)": 60.0,
        "Latitude(deg)": 42.84243533003578,
        "Longitude(deg)": -112.96236948015736,
        "Mean Anomaly(deg)": -308.4286754181527,
        "RAAN(deg)": 314.99831980344106,
        "Satellite Name": "Test1 1389",
        "Satellite Number": 1389,
        "Semi-Major Axis(m)": 6980739.136638005,
        "Time(s)": 40
    },
    {
        "Altitude(m)": 608391.105134112,
        "Argument of Periapsis(deg)": 0.0005209472956648203,
        "Eccentricity": 0.0,
        "Inclination(deg)": 60.0,
        "Latitude(deg)": 43.296373818670844,
        "Longitude(deg)": -112.42565925055183,
        "Mean Anomaly(deg)": -307.8085692726908,
        "RAAN(deg)": 314.9978997543013,
        "Satellite Name": "Test1 1389",
        "Satellite Number": 1389,
        "Semi-Major Axis(m)": 6980739.136638005,
        "Time(s)": 50
    },
    {
        "Altitude(m)": 608491.6374129392,
        "Argument of Periapsis(deg)": 0.0006251367547977843,
        "Eccentricity": 0.0,
        "Inclination(deg)": 60.0,
        "Latitude(deg)": 43.747309537967354,
        "Longitude(deg)": -111.8803215588603,
        "Mean Anomaly(deg)": -307.18846312722906,
        "RAAN(deg)": 314.99747970516154,
        "Satellite Name": "Test1 1389",
        "Satellite Number": 1389,
        "Semi-Major Axis(m)": 6980739.136638005,
        "Time(s)": 60
    },
    {
        "Altitude(m)": 608591.9057895509,
        "Argument of Periapsis(deg)": 0.0007293262139307483,
        "Eccentricity": 0.0,
        "Inclination(deg)": 60.0,
        "Latitude(deg)": 44.1951510714769,
        "Longitude(deg)": -111.32614701056265,
        "Mean Anomaly(deg)": -306.5683569817672,
        "RAAN(deg)": 314.9970596560218,
        "Satellite Name": "Test1 1389",
        "Satellite Number": 1389,
        "Semi-Major Axis(m)": 6980739.136638005,
        "Time(s)": 70
    },
    {
        "Altitude(m)": 608691.8484870234,
        "Argument of Periapsis(deg)": 0.0008335156730637124,
        "Eccentricity": 0.0,
        "Inclination(deg)": 60.0,
        "Latitude(deg)": 44.63980413488296,
        "Longitude(deg)": -110.76292382504995,
        "Mean Anomaly(deg)": -305.94825083630536,
        "RAAN(deg)": 314.99663960688207,
        "Satellite Name": "Test1 1389",
        "Satellite Number": 1389,
        "Semi-Major Axis(m)": 6980739.136638005,
        "Time(s)": 80
    },
    {
        "Altitude(m)": 608791.4041095177,
        "Argument of Periapsis(deg)": 0.0009377051321966765,
        "Eccentricity": 0.0,
        "Inclination(deg)": 60.0,
        "Latitude(deg)": 45.08117149530571,
        "Longitude(deg)": -110.19043750866022,
        "Mean Anomaly(deg)": -305.32814469084354,
        "RAAN(deg)": 314.99621955774234,
        "Satellite Name": "Test1 1389",
        "Satellite Number": 1389,
        "Semi-Major Axis(m)": 6980739.136638005,
        "Time(s)": 90
    },
    {
        "Altitude(m)": 608890.5116725446,
        "Argument of Periapsis(deg)": 0.0010418945913296407,
        "Eccentricity": 0.0,
        "Inclination(deg)": 60.0,
        "Latitude(deg)": 45.51915289103664,
        "Longitude(deg)": -109.60847055577656,
        "Mean Anomaly(deg)": -304.70803854538167,
        "RAAN(deg)": 314.99579950860254,
        "Satellite Name": "Test1 1389",
        "Satellite Number": 1389,
        "Semi-Major Axis(m)": 6980739.136638005,
        "Time(s)": 100
    },
    {
        "Altitude(m)": 608989.1106329261,
        "Argument of Periapsis(deg)": 0.0011460840504626045,
        "Eccentricity": 0.0,
        "Inclination(deg)": 60.0,
        "Latitude(deg)": 45.95364495209248,
        "Longitude(deg)": -109.01680369323509,
        "Mean Anomaly(deg)": -304.0879323999199,
        "RAAN(deg)": 314.99537945946287,
        "Satellite Name": "Test1 1389",
        "Satellite Number": 1389,
        "Semi-Major Axis(m)": 6980739.136638005,
        "Time(s)": 110
    },
    {
        "Altitude(m)": 609087.140918553,
        "Argument of Periapsis(deg)": 0.0012502735095955685,
        "Eccentricity": 0.0,
        "Inclination(deg)": 60.0,
        "Latitude(deg)": 46.38454112201657,
        "Longitude(deg)": -108.41521564480234,
        "Mean Anomaly(deg)": -303.46782625445803,
        "RAAN(deg)": 314.99495941032313,
        "Satellite Name": "Test1 1389",
        "Satellite Number": 1389,
        "Semi-Major Axis(m)": 6980739.136638005,
        "Time(s)": 120
    },
    {
        "Altitude(m)": 609184.5429578291,
        "Argument of Periapsis(deg)": 0.0013544629687285324,
        "Eccentricity": 0.0,
        "Inclination(deg)": 60.0,
        "Latitude(deg)": 46.81173158141402,
        "Longitude(deg)": -107.80348293120215,
        "Mean Anomaly(deg)": -302.8477201089962,
        "RAAN(deg)": 314.99453936118334,
        "Satellite Name": "Test1 1389",
        "Satellite Number": 1389,
        "Semi-Major Axis(m)": 6980739.136638005,
        "Time(s)": 130
    },
    {
        "Altitude(m)": 609281.2577088638,
        "Argument of Periapsis(deg)": 0.0014586524278614966,
        "Eccentricity": 0.0,
        "Inclination(deg)": 60.0,
        "Latitude(deg)": 47.235103173758176,
        "Longitude(deg)": -107.18138122128043,
        "Mean Anomaly(deg)": -302.22761396353434,
        "RAAN(deg)": 314.9941193120436,
        "Satellite Name": "Test1 1389",
        "Satellite Number": 1389,
        "Semi-Major Axis(m)": 6980739.136638005,
        "Time(s)": 140
    },
    {
        "Altitude(m)": 609377.2266883362,
        "Argument of Periapsis(deg)": 0.0015628418869944607,
        "Eccentricity": 0.0,
        "Inclination(deg)": 60.0,
        "Latitude(deg)": 47.65453933406282,
        "Longitude(deg)": -106.54868521137305,
        "Mean Anomaly(deg)": -301.6075078180726,
        "RAAN(deg)": 314.9936992629039,
        "Satellite Name": "Test1 1389",
        "Satellite Number": 1389,
        "Semi-Major Axis(m)": 6980739.136638005,
        "Time(s)": 150
    },
    {
        "Altitude(m)": 609472.3920000743,
        "Argument of Periapsis(deg)": 0.0016670313461274247,
        "Eccentricity": 0.0,
        "Inclination(deg)": 60.0,
        "Latitude(deg)": 48.06992002107923,
        "Longitude(deg)": -105.90516854863449,
        "Mean Anomaly(deg)": -300.9874016726107,
        "RAAN(deg)": 314.99327921376414,
        "Satellite Name": "Test1 1389",
        "Satellite Number": 1389,
        "Semi-Major Axis(m)": 6980739.136638005,
        "Time(s)": 160
    },
    {
        "Altitude(m)": 609566.6963632872,
        "Argument of Periapsis(deg)": 0.0017712208052603888,
        "Eccentricity": 0.0,
        "Inclination(deg)": 60.0,
        "Latitude(deg)": 48.48112165374139,
        "Longitude(deg)": -105.2506053141435,
        "Mean Anomaly(deg)": -300.3672955271489,
        "RAAN(deg)": 314.9928591646244,
        "Satellite Name": "Test1 1389",
        "Satellite Number": 1389,
        "Semi-Major Axis(m)": 6980739.136638005,
        "Time(s)": 170
    },
    {
        "Altitude(m)": 609660.0831404927,
        "Argument of Periapsis(deg)": 0.001875410264393353,
        "Eccentricity": 0.0,
        "Inclination(deg)": 60.0,
        "Latitude(deg)": 48.888017052650106,
        "Longitude(deg)": -104.58477004302327,
        "Mean Anomaly(deg)": -299.74718938168706,
        "RAAN(deg)": 314.9924391154846,
        "Satellite Name": "Test1 1389",
        "Satellite Number": 1389,
        "Semi-Major Axis(m)": 6980739.136638005,
        "Time(s)": 180
    },
    {
        "Altitude(m)": 609752.4963650524,
        "Argument of Periapsis(deg)": 0.0019795997235263173,
        "Eccentricity": 0.0,
        "Inclination(deg)": 60.0,
        "Latitude(deg)": 49.29047538745983,
        "Longitude(deg)": -103.90743779743629,
        "Mean Anomaly(deg)": -299.12708323622525,
        "RAAN(deg)": 314.99201906634494,
        "Satellite Name": "Test1 1389",
        "Satellite Number": 1389,
        "Semi-Major Axis(m)": 6980739.136638005,
        "Time(s)": 190
    }
]